GLOBALSTAR M063         
1 26081U 00008A   24197.61283941 -.00000081  00000+0  22931-4 0  9992
2 26081  51.9952 277.9812 0004319  34.3026 108.1856 11.86156931117639
GLOBALSTAR M062         
1 26082U 00008B   24197.55263455 -.00000149  00000+0 -36059-3 0  9995
2 26082  51.9867   5.7039 0007822 112.3337 275.4662 12.43441199454743
GLOBALSTAR M060         
1 26083U 00008C   24197.60560904 -.00000070  00000+0  21250-3 0  9990
2 26083  52.0022 277.9410 0003838 161.3839 339.7422 12.17637750111366
GLOBALSTAR M065         
1 31571U 07020A   24197.64373546 -.00000048  00000+0  31169-3 0  9992
2 31571  51.9871 170.5689 0009840 283.4027 247.5961 12.61974143790911
GLOBALSTAR M069         
1 31573U 07020C   24197.55209388 -.00000076  00000+0  15766-3 0  9992
2 31573  51.9943 126.6372 0000796  11.8984 159.4975 12.62277058792033
GLOBALSTAR M071         
1 31576U 07020F   24197.57880840 -.00000069  00000+0  19242-3 0  9990
2 31576  52.0059 131.7462 0000836  44.6918 126.2963 12.62269730453221
